[{"OBJECT_NAME":"SL-8 R/B","OBJECT_ID":"1979-089B","EPOCH":"2026-03-11T04:50:57.438816","MEAN_MOTION":14.42351751,"ECCENTRICITY":0.00171409,"INCLINATION":74.0667,"RA_OF_ASC_NODE":88.2436,"ARG_OF_PERICENTER":260.7173,"MEAN_ANOMALY":99.2045,"EPHEMERIS_TYPE":0,"CLASSIFICATION_TYPE":"U","NORAD_CAT_ID":11574,"ELEMENT_SET_NO":999,"REV_AT_EPOCH":43632,"BSTAR":0.00010259078,"MEAN_MOTION_DOT":3.13e-6,"MEAN_MOTION_DDOT":0},{"OBJECT_NAME":"SL-14 R/B","OBJECT_ID":"1980-005B","EPOCH":"2026-03-11T03:17:21.933024","MEAN_MOTION":14.90932181,"ECCENTRICITY":0.00163058,"INCLINATION":82.5142,"RA_OF_ASC_NODE":305.8635,"ARG_OF_PERICENTER":153.6741,"MEAN_ANOMALY":206.531,"EPHEMERIS_TYPE":0,"CLASSIFICATION_TYPE":"U","NORAD_CAT_ID":11672,"ELEMENT_SET_NO":999,"REV_AT_EPOCH":47670,"BSTAR":6.056779e-5,"MEAN_MOTION_DOT":6.24e-6,"MEAN_MOTION_DDOT":0},{"OBJECT_NAME":"SL-8 R/B","OBJECT_ID":"1981-003B","EPOCH":"2026-03-11T01:26:55.529088","MEAN_MOTION":15.11032519,"ECCENTRICITY":0.0262132,"INCLINATION":82.9385,"RA_OF_ASC_NODE":288.7557,"ARG_OF_PERICENTER":173.8818,"MEAN_ANOMALY":186.5729,"EPHEMERIS_TYPE":0,"CLASSIFICATION_TYPE":"U","NORAD_CAT_ID":12139,"ELEMENT_SET_NO":999,"REV_AT_EPOCH":31488,"BSTAR":0.00053858236,"MEAN_MOTION_DOT":0.00021046,"MEAN_MOTION_DDOT":0},{"OBJECT_NAME":"SL-3 R/B","OBJECT_ID":"1981-046B","EPOCH":"2026-03-11T06:38:48.209568","MEAN_MOTION":15.42041828,"ECCENTRICITY":0.00193946,"INCLINATION":81.2299,"RA_OF_ASC_NODE":287.838,"ARG_OF_PERICENTER":16.9108,"MEAN_ANOMALY":343.2776,"EPHEMERIS_TYPE":0,"CLASSIFICATION_TYPE":"U","NORAD_CAT_ID":12465,"ELEMENT_SET_NO":999,"REV_AT_EPOCH":43867,"BSTAR":0.00032897441,"MEAN_MOTION_DOT":0.00014172,"MEAN_MOTION_DDOT":0},{"OBJECT_NAME":"SL-3 R/B","OBJECT_ID":"1981-103B","EPOCH":"2026-03-11T06:50:24.162432","MEAN_MOTION":15.21398311,"ECCENTRICITY":0.00123469,"INCLINATION":81.1584,"RA_OF_ASC_NODE":211.5603,"ARG_OF_PERICENTER":281.3642,"MEAN_ANOMALY":78.6202,"EPHEMERIS_TYPE":0,"CLASSIFICATION_TYPE":"U","NORAD_CAT_ID":12904,"ELEMENT_SET_NO":999,"REV_AT_EPOCH":97347,"BSTAR":0.00029891796,"MEAN_MOTION_DOT":6.743e-5,"MEAN_MOTION_DDOT":0},{"OBJECT_NAME":"SL-3 R/B","OBJECT_ID":"1982-013B","EPOCH":"2026-03-11T07:01:03.843840","MEAN_MOTION":15.22036737,"ECCENTRICITY":0.00226878,"INCLINATION":81.176,"RA_OF_ASC_NODE":158.8926,"ARG_OF_PERICENTER":172.1687,"MEAN_ANOMALY":187.9904,"EPHEMERIS_TYPE":0,"CLASSIFICATION_TYPE":"U","NORAD_CAT_ID":13068,"ELEMENT_SET_NO":999,"REV_AT_EPOCH":40459,"BSTAR":0.00021550046,"MEAN_MOTION_DOT":4.985e-5,"MEAN_MOTION_DDOT":0},{"OBJECT_NAME":"SL-3 R/B","OBJECT_ID":"1982-039B","EPOCH":"2026-03-11T05:55:48.613152","MEAN_MOTION":15.1009229,"ECCENTRICITY":0.0029676,"INCLINATION":81.158,"RA_OF_ASC_NODE":214.1661,"ARG_OF_PERICENTER":319.4175,"MEAN_ANOMALY":40.4837,"EPHEMERIS_TYPE":0,"CLASSIFICATION_TYPE":"U","NORAD_CAT_ID":13154,"ELEMENT_SET_NO":999,"REV_AT_EPOCH":38187,"BSTAR":0.00019493509,"MEAN_MOTION_DOT":3.23e-5,"MEAN_MOTION_DDOT":0},{"OBJECT_NAME":"SL-3 R/B","OBJECT_ID":"1982-079B","EPOCH":"2026-03-11T07:22:43.216032","MEAN_MOTION":15.24828669,"ECCENTRICITY":0.00251011,"INCLINATION":81.1478,"RA_OF_ASC_NODE":191.1672,"ARG_OF_PERICENTER":159.3912,"MEAN_ANOMALY":200.834,"EPHEMERIS_TYPE":0,"CLASSIFICATION_TYPE":"U","NORAD_CAT_ID":13403,"ELEMENT_SET_NO":999,"REV_AT_EPOCH":37794,"BSTAR":0.00030953361,"MEAN_MOTION_DOT":7.779e-5,"MEAN_MOTION_DDOT":0},{"OBJECT_NAME":"SL-14 R/B","OBJECT_ID":"1982-092B","EPOCH":"2026-03-11T06:14:37.747104","MEAN_MOTION":14.86668036,"ECCENTRICITY":0.00189408,"INCLINATION":82.5692,"RA_OF_ASC_NODE":139.9307,"ARG_OF_PERICENTER":297.8937,"MEAN_ANOMALY":130.051,"EPHEMERIS_TYPE":0,"CLASSIFICATION_TYPE":"U","NORAD_CAT_ID":13553,"ELEMENT_SET_NO":999,"REV_AT_EPOCH":32916,"BSTAR":5.6648372e-5,"MEAN_MOTION_DOT":5.29e-6,"MEAN_MOTION_DDOT":0},{"OBJECT_NAME":"SL-3 R/B","OBJECT_ID":"1983-010B","EPOCH":"2026-03-11T05:58:55.189632","MEAN_MOTION":15.46421618,"ECCENTRICITY":0.0017858,"INCLINATION":81.106,"RA_OF_ASC_NODE":0.3352,"ARG_OF_PERICENTER":45.8312,"MEAN_ANOMALY":314.4397,"EPHEMERIS_TYPE":0,"CLASSIFICATION_TYPE":"U","NORAD_CAT_ID":13819,"ELEMENT_SET_NO":999,"REV_AT_EPOCH":35818,"BSTAR":0.00040142884,"MEAN_MOTION_DOT":0.00020038,"MEAN_MOTION_DDOT":0},{"OBJECT_NAME":"SL-3 R/B","OBJECT_ID":"1983-075B","EPOCH":"2026-03-11T05:57:18.933120","MEAN_MOTION":15.38460082,"ECCENTRICITY":0.00202431,"INCLINATION":97.6147,"RA_OF_ASC_NODE":74.8843,"ARG_OF_PERICENTER":219.9567,"MEAN_ANOMALY":140.0189,"EPHEMERIS_TYPE":0,"CLASSIFICATION_TYPE":"U","NORAD_CAT_ID":14208,"ELEMENT_SET_NO":999,"REV_AT_EPOCH":33039,"BSTAR":0.00033690494,"MEAN_MOTION_DOT":0.00012789,"MEAN_MOTION_DDOT":0},{"OBJECT_NAME":"COSMOS 1536","OBJECT_ID":"1984-013A","EPOCH":"2026-03-11T03:56:58.713216","MEAN_MOTION":15.23847163,"ECCENTRICITY":0.0012497,"INCLINATION":82.5431,"RA_OF_ASC_NODE":106.3843,"ARG_OF_PERICENTER":277.4551,"MEAN_ANOMALY":82.5266,"EPHEMERIS_TYPE":0,"CLASSIFICATION_TYPE":"U","NORAD_CAT_ID":14699,"ELEMENT_SET_NO":999,"REV_AT_EPOCH":27284,"BSTAR":0.00029824662,"MEAN_MOTION_DOT":7.236e-5,"MEAN_MOTION_DDOT":0},{"OBJECT_NAME":"SL-14 R/B","OBJECT_ID":"1984-027B","EPOCH":"2026-03-10T23:20:28.749408","MEAN_MOTION":14.85978018,"ECCENTRICITY":0.00172356,"INCLINATION":82.5388,"RA_OF_ASC_NODE":243.8091,"ARG_OF_PERICENTER":333.4752,"MEAN_ANOMALY":26.558,"EPHEMERIS_TYPE":0,"CLASSIFICATION_TYPE":"U","NORAD_CAT_ID":14820,"ELEMENT_SET_NO":999,"REV_AT_EPOCH":24782,"BSTAR":6.8365744e-5,"MEAN_MOTION_DOT":6.22e-6,"MEAN_MOTION_DDOT":0},{"OBJECT_NAME":"SL-8 R/B","OBJECT_ID":"1985-006B","EPOCH":"2026-03-10T23:59:19.220928","MEAN_MOTION":14.37784038,"ECCENTRICITY":0.0018404,"INCLINATION":74.0432,"RA_OF_ASC_NODE":258.738,"ARG_OF_PERICENTER":176.2614,"MEAN_ANOMALY":346.0057,"EPHEMERIS_TYPE":0,"CLASSIFICATION_TYPE":"U","NORAD_CAT_ID":15483,"ELEMENT_SET_NO":999,"REV_AT_EPOCH":15421,"BSTAR":0.00013312,"MEAN_MOTION_DOT":3.75e-6,"MEAN_MOTION_DDOT":0},{"OBJECT_NAME":"SL-12 R/B(2)","OBJECT_ID":"1985-042D","EPOCH":"2026-03-11T07:37:59.976192","MEAN_MOTION":14.21982772,"ECCENTRICITY":0.00331637,"INCLINATION":71.1063,"RA_OF_ASC_NODE":84.288,"ARG_OF_PERICENTER":125.4695,"MEAN_ANOMALY":325.9831,"EPHEMERIS_TYPE":0,"CLASSIFICATION_TYPE":"U","NORAD_CAT_ID":15772,"ELEMENT_SET_NO":999,"REV_AT_EPOCH":11462,"BSTAR":6.5824441e-5,"MEAN_MOTION_DOT":9.9e-7,"MEAN_MOTION_DDOT":0},{"OBJECT_NAME":"SL-14 R/B","OBJECT_ID":"1985-069B","EPOCH":"2026-03-11T07:02:41.386848","MEAN_MOTION":14.86435312,"ECCENTRICITY":0.00186232,"INCLINATION":82.5288,"RA_OF_ASC_NODE":23.4249,"ARG_OF_PERICENTER":182.351,"MEAN_ANOMALY":177.7622,"EPHEMERIS_TYPE":0,"CLASSIFICATION_TYPE":"U","NORAD_CAT_ID":15945,"ELEMENT_SET_NO":999,"REV_AT_EPOCH":17307,"BSTAR":7.2940344e-5,"MEAN_MOTION_DOT":6.7e-6,"MEAN_MOTION_DDOT":0},{"OBJECT_NAME":"SL-16 R/B","OBJECT_ID":"1985-097B","EPOCH":"2026-03-11T07:54:43.348032","MEAN_MOTION":14.16598456,"ECCENTRICITY":0.0009879,"INCLINATION":71.0025,"RA_OF_ASC_NODE":137.1021,"ARG_OF_PERICENTER":257.8109,"MEAN_ANOMALY":170.5433,"EPHEMERIS_TYPE":0,"CLASSIFICATION_TYPE":"U","NORAD_CAT_ID":16182,"ELEMENT_SET_NO":999,"REV_AT_EPOCH":8746,"BSTAR":-6.5454673e-5,"MEAN_MOTION_DOT":-1.79e-6,"MEAN_MOTION_DDOT":0}]
